<?xml version="1.0" encoding="UTF-8"?>
<kml xmlns="http://www.opengis.net/kml/2.2" xmlns:gx="http://www.google.com/kml/ext/2.2" xmlns:kml="http://www.opengis.net/kml/2.2" xmlns:atom="http://www.w3.org/2005/Atom">
<Document>
	<name>Pista de Obstáculos Cubo 2026.kml</name>
	<StyleMap id="m_ylw-pushpin">
		<Pair>
			<key>normal</key>
			<styleUrl>#s_ylw-pushpin</styleUrl>
		</Pair>
		<Pair>
			<key>highlight</key>
			<styleUrl>#s_ylw-pushpin_hl</styleUrl>
		</Pair>
	</StyleMap>
	<Style id="s_ylw-pushpin">
		<IconStyle>
			<scale>1.1</scale>
			<Icon>
				<href>http://maps.google.com/mapfiles/kml/pushpin/ylw-pushpin.png</href>
			</Icon>
			<hotSpot x="20" y="2" xunits="pixels" yunits="pixels"/>
		</IconStyle>
		<LineStyle>
			<color>ff00ff00</color>
			<width>5</width>
		</LineStyle>
	</Style>
	<Style id="s_ylw-pushpin_hl">
		<IconStyle>
			<scale>1.3</scale>
			<Icon>
				<href>http://maps.google.com/mapfiles/kml/pushpin/ylw-pushpin.png</href>
			</Icon>
			<hotSpot x="20" y="2" xunits="pixels" yunits="pixels"/>
		</IconStyle>
		<LineStyle>
			<color>ff00ff00</color>
			<width>5</width>
		</LineStyle>
	</Style>
	<Placemark>
		<name>Pista de Obstáculos</name>
		<styleUrl>#m_ylw-pushpin</styleUrl>
		<LineString>
			<tessellate>1</tessellate>
			<coordinates>
				-7.296250692966422,40.54096361919797,0 -7.296147650988751,40.54099435797673,0 -7.29609729428984,40.5409734801507,0 -7.296075700373306,40.54092902725458,0 -7.296116222434582,40.54084380795373,0 -7.296189535566178,40.54076352616281,0 -7.296347838432833,40.54065849290127,0 -7.296525936947099,40.54057819956183,0 -7.296731623620363,40.54049984085977,0 -7.296925716198083,40.54049128252122,0 -7.297283568890261,40.54055472067688,0 -7.297289199129706,40.54055490186987,0 -7.297464119550074,40.54057147904567,0 -7.297651198467162,40.5405247743318,0 -7.297898677015376,40.54052818576135,0 -7.297904541140412,40.54052836781218,0 -7.298147700013499,40.54064958885888,0 -7.298150676674217,40.54064969264064,0 -7.298439224262919,40.54079898591962,0 -7.29844798443116,40.54080382543979,0 -7.298697966500875,40.54088146363672,0 -7.298807225751371,40.54089724945614,0 -7.298978812465738,40.54092929647567,0 -7.298993718861616,40.54092991320194,0 -7.298999684063078,40.54093016011734,0 -7.29920844401931,40.54090428193744,0 -7.299425760121943,40.54080774512131,0 -7.299550302239613,40.54071404974128,0 -7.299821814976186,40.54054508799528,0 -7.300068198351828,40.54042584041871,0 -7.300208418993666,40.54041544266696,0 -7.300412683200874,40.54049767408169,0 -7.300430319063825,40.54050766083072,0 -7.300439138502694,40.54051265539124,0 -7.300456768622897,40.54052263655957,0 -7.300664071641898,40.54064873115885,0 -7.30100924041695,40.54077938247659,0 -7.301798727359231,40.54118853506181,0 -7.302071556476229,40.54133603398455,0 -7.302398818414229,40.54156306985068,0 -7.302605345918447,40.54169323802733,0 -7.302819103498464,40.54184572423534,0 -7.302827544660293,40.54184596322343,0 -7.303166540291359,40.54187226707161,0 -7.303474908241854,40.54186379962035,0 -7.303779423250672,40.54184509115941,0 -7.304051294624976,40.54178304606575,0 -7.304173713982647,40.54168123768115,0 -7.304288447677532,40.54161051303642,0 -7.304627696695939,40.54166224640932,0 -7.305093864025228,40.54177372264559,0 -7.305919823359275,40.5419908460639,0 -7.306475276226396,40.54217869417098,0 -7.30677271130895,40.54226251204605,0 -7.307368828332993,40.54241314740216,0 -7.307949887746828,40.54259078571368,0 -7.30815882814592,40.54263463646805,0 -7.308326726456754,40.54264257266831,0 -7.308520961285975,40.54267224940088,0 -7.308578531321983,40.54268050427628,0 
			</coordinates>
		</LineString>
		<atom:link rel="app" href="https://www.google.com/earth/about/versions/#earth-pro" title="Google Earth Pro 7.3.6.10441"></atom:link>
	</Placemark>
</Document>
</kml>
