<?xml version="1.0" standalone="yes"?>
<gpx xmlns="http://www.topografix.com/GPX/1/1" creator="KML2GPX.COM" version="1.1" xmlns:xsi="http://www.w3.org/2001/XMLSchema-instance" xsi:schemaLocation="http://www.topografix.com/GPX/1/1 http://www.topografix.com/GPX/1/1/gpx.xsd">
    <metadata>
        <name><![CDATA[Pista de Obstáculos Cubo 2026.kml]]></name>
        <desc><![CDATA[Converted from a KML file KML2GPX.COM]]></desc>
                </metadata>

                
                                                                                                    
                <trk>
                    <name><![CDATA[Pista de Obstáculos Cubo 2026.kml_Pista de Obstáculos]]></name>
                    <desc><![CDATA[This is track no: 1]]></desc>
                    <number>1</number>
                    <trkseg>
                                                                                                                                                                                                <trkpt lat="40.54096361919797" lon="-7.296250692966422">
                                                                                                            <ele>0</ele>
                                    <name>1</name>
                                </trkpt>
                                                                                                                                                                                                                                    <trkpt lat="40.54099435797673" lon="-7.296147650988751">
                                                                                                            <ele>0</ele>
                                    <name>2</name>
                                </trkpt>
                                                                                                                                                                                                                                    <trkpt lat="40.5409734801507" lon="-7.29609729428984">
                                                                                                            <ele>0</ele>
                                    <name>3</name>
                                </trkpt>
                                                                                                                                                                                                                                    <trkpt lat="40.54092902725458" lon="-7.296075700373306">
                                                                                                            <ele>0</ele>
                                    <name>4</name>
                                </trkpt>
                                                                                                                                                                                                                                    <trkpt lat="40.54084380795373" lon="-7.296116222434582">
                                                                                                            <ele>0</ele>
                                    <name>5</name>
                                </trkpt>
                                                                                                                                                                                                                                    <trkpt lat="40.54076352616281" lon="-7.296189535566178">
                                                                                                            <ele>0</ele>
                                    <name>6</name>
                                </trkpt>
                                                                                                                                                                                                                                    <trkpt lat="40.54065849290127" lon="-7.296347838432833">
                                                                                                            <ele>0</ele>
                                    <name>7</name>
                                </trkpt>
                                                                                                                                                                                                                                    <trkpt lat="40.54057819956183" lon="-7.296525936947099">
                                                                                                            <ele>0</ele>
                                    <name>8</name>
                                </trkpt>
                                                                                                                                                                                                                                    <trkpt lat="40.54049984085977" lon="-7.296731623620363">
                                                                                                            <ele>0</ele>
                                    <name>9</name>
                                </trkpt>
                                                                                                                                                                                                                                    <trkpt lat="40.54049128252122" lon="-7.296925716198083">
                                                                                                            <ele>0</ele>
                                    <name>10</name>
                                </trkpt>
                                                                                                                                                                                                                                    <trkpt lat="40.54055472067688" lon="-7.297283568890261">
                                                                                                            <ele>0</ele>
                                    <name>11</name>
                                </trkpt>
                                                                                                                                                                                                                                    <trkpt lat="40.54055490186987" lon="-7.297289199129706">
                                                                                                            <ele>0</ele>
                                    <name>12</name>
                                </trkpt>
                                                                                                                                                                                                                                    <trkpt lat="40.54057147904567" lon="-7.297464119550074">
                                                                                                            <ele>0</ele>
                                    <name>13</name>
                                </trkpt>
                                                                                                                                                                                                                                    <trkpt lat="40.5405247743318" lon="-7.297651198467162">
                                                                                                            <ele>0</ele>
                                    <name>14</name>
                                </trkpt>
                                                                                                                                                                                                                                    <trkpt lat="40.54052818576135" lon="-7.297898677015376">
                                                                                                            <ele>0</ele>
                                    <name>15</name>
                                </trkpt>
                                                                                                                                                                                                                                    <trkpt lat="40.54052836781218" lon="-7.297904541140412">
                                                                                                            <ele>0</ele>
                                    <name>16</name>
                                </trkpt>
                                                                                                                                                                                                                                    <trkpt lat="40.54064958885888" lon="-7.298147700013499">
                                                                                                            <ele>0</ele>
                                    <name>17</name>
                                </trkpt>
                                                                                                                                                                                                                                    <trkpt lat="40.54064969264064" lon="-7.298150676674217">
                                                                                                            <ele>0</ele>
                                    <name>18</name>
                                </trkpt>
                                                                                                                                                                                                                                    <trkpt lat="40.54079898591962" lon="-7.298439224262919">
                                                                                                            <ele>0</ele>
                                    <name>19</name>
                                </trkpt>
                                                                                                                                                                                                                                    <trkpt lat="40.54080382543979" lon="-7.29844798443116">
                                                                                                            <ele>0</ele>
                                    <name>20</name>
                                </trkpt>
                                                                                                                                                                                                                                    <trkpt lat="40.54088146363672" lon="-7.298697966500875">
                                                                                                            <ele>0</ele>
                                    <name>21</name>
                                </trkpt>
                                                                                                                                                                                                                                    <trkpt lat="40.54089724945614" lon="-7.298807225751371">
                                                                                                            <ele>0</ele>
                                    <name>22</name>
                                </trkpt>
                                                                                                                                                                                                                                    <trkpt lat="40.54092929647567" lon="-7.298978812465738">
                                                                                                            <ele>0</ele>
                                    <name>23</name>
                                </trkpt>
                                                                                                                                                                                                                                    <trkpt lat="40.54092991320194" lon="-7.298993718861616">
                                                                                                            <ele>0</ele>
                                    <name>24</name>
                                </trkpt>
                                                                                                                                                                                                                                    <trkpt lat="40.54093016011734" lon="-7.298999684063078">
                                                                                                            <ele>0</ele>
                                    <name>25</name>
                                </trkpt>
                                                                                                                                                                                                                                    <trkpt lat="40.54090428193744" lon="-7.29920844401931">
                                                                                                            <ele>0</ele>
                                    <name>26</name>
                                </trkpt>
                                                                                                                                                                                                                                    <trkpt lat="40.54080774512131" lon="-7.299425760121943">
                                                                                                            <ele>0</ele>
                                    <name>27</name>
                                </trkpt>
                                                                                                                                                                                                                                    <trkpt lat="40.54071404974128" lon="-7.299550302239613">
                                                                                                            <ele>0</ele>
                                    <name>28</name>
                                </trkpt>
                                                                                                                                                                                                                                    <trkpt lat="40.54054508799528" lon="-7.299821814976186">
                                                                                                            <ele>0</ele>
                                    <name>29</name>
                                </trkpt>
                                                                                                                                                                                                                                    <trkpt lat="40.54042584041871" lon="-7.300068198351828">
                                                                                                            <ele>0</ele>
                                    <name>30</name>
                                </trkpt>
                                                                                                                                                                                                                                    <trkpt lat="40.54041544266696" lon="-7.300208418993666">
                                                                                                            <ele>0</ele>
                                    <name>31</name>
                                </trkpt>
                                                                                                                                                                                                                                    <trkpt lat="40.54049767408169" lon="-7.300412683200874">
                                                                                                            <ele>0</ele>
                                    <name>32</name>
                                </trkpt>
                                                                                                                                                                                                                                    <trkpt lat="40.54050766083072" lon="-7.300430319063825">
                                                                                                            <ele>0</ele>
                                    <name>33</name>
                                </trkpt>
                                                                                                                                                                                                                                    <trkpt lat="40.54051265539124" lon="-7.300439138502694">
                                                                                                            <ele>0</ele>
                                    <name>34</name>
                                </trkpt>
                                                                                                                                                                                                                                    <trkpt lat="40.54052263655957" lon="-7.300456768622897">
                                                                                                            <ele>0</ele>
                                    <name>35</name>
                                </trkpt>
                                                                                                                                                                                                                                    <trkpt lat="40.54064873115885" lon="-7.300664071641898">
                                                                                                            <ele>0</ele>
                                    <name>36</name>
                                </trkpt>
                                                                                                                                                                                                                                    <trkpt lat="40.54077938247659" lon="-7.30100924041695">
                                                                                                            <ele>0</ele>
                                    <name>37</name>
                                </trkpt>
                                                                                                                                                                                                                                    <trkpt lat="40.54118853506181" lon="-7.301798727359231">
                                                                                                            <ele>0</ele>
                                    <name>38</name>
                                </trkpt>
                                                                                                                                                                                                                                    <trkpt lat="40.54133603398455" lon="-7.302071556476229">
                                                                                                            <ele>0</ele>
                                    <name>39</name>
                                </trkpt>
                                                                                                                                                                                                                                    <trkpt lat="40.54156306985068" lon="-7.302398818414229">
                                                                                                            <ele>0</ele>
                                    <name>40</name>
                                </trkpt>
                                                                                                                                                                                                                                    <trkpt lat="40.54169323802733" lon="-7.302605345918447">
                                                                                                            <ele>0</ele>
                                    <name>41</name>
                                </trkpt>
                                                                                                                                                                                                                                    <trkpt lat="40.54184572423534" lon="-7.302819103498464">
                                                                                                            <ele>0</ele>
                                    <name>42</name>
                                </trkpt>
                                                                                                                                                                                                                                    <trkpt lat="40.54184596322343" lon="-7.302827544660293">
                                                                                                            <ele>0</ele>
                                    <name>43</name>
                                </trkpt>
                                                                                                                                                                                                                                    <trkpt lat="40.54187226707161" lon="-7.303166540291359">
                                                                                                            <ele>0</ele>
                                    <name>44</name>
                                </trkpt>
                                                                                                                                                                                                                                    <trkpt lat="40.54186379962035" lon="-7.303474908241854">
                                                                                                            <ele>0</ele>
                                    <name>45</name>
                                </trkpt>
                                                                                                                                                                                                                                    <trkpt lat="40.54184509115941" lon="-7.303779423250672">
                                                                                                            <ele>0</ele>
                                    <name>46</name>
                                </trkpt>
                                                                                                                                                                                                                                    <trkpt lat="40.54178304606575" lon="-7.304051294624976">
                                                                                                            <ele>0</ele>
                                    <name>47</name>
                                </trkpt>
                                                                                                                                                                                                                                    <trkpt lat="40.54168123768115" lon="-7.304173713982647">
                                                                                                            <ele>0</ele>
                                    <name>48</name>
                                </trkpt>
                                                                                                                                                                                                                                    <trkpt lat="40.54161051303642" lon="-7.304288447677532">
                                                                                                            <ele>0</ele>
                                    <name>49</name>
                                </trkpt>
                                                                                                                                                                                                                                    <trkpt lat="40.54166224640932" lon="-7.304627696695939">
                                                                                                            <ele>0</ele>
                                    <name>50</name>
                                </trkpt>
                                                                                                                                                                                                                                    <trkpt lat="40.54177372264559" lon="-7.305093864025228">
                                                                                                            <ele>0</ele>
                                    <name>51</name>
                                </trkpt>
                                                                                                                                                                                                                                    <trkpt lat="40.5419908460639" lon="-7.305919823359275">
                                                                                                            <ele>0</ele>
                                    <name>52</name>
                                </trkpt>
                                                                                                                                                                                                                                    <trkpt lat="40.54217869417098" lon="-7.306475276226396">
                                                                                                            <ele>0</ele>
                                    <name>53</name>
                                </trkpt>
                                                                                                                                                                                                                                    <trkpt lat="40.54226251204605" lon="-7.30677271130895">
                                                                                                            <ele>0</ele>
                                    <name>54</name>
                                </trkpt>
                                                                                                                                                                                                                                    <trkpt lat="40.54241314740216" lon="-7.307368828332993">
                                                                                                            <ele>0</ele>
                                    <name>55</name>
                                </trkpt>
                                                                                                                                                                                                                                    <trkpt lat="40.54259078571368" lon="-7.307949887746828">
                                                                                                            <ele>0</ele>
                                    <name>56</name>
                                </trkpt>
                                                                                                                                                                                                                                    <trkpt lat="40.54263463646805" lon="-7.30815882814592">
                                                                                                            <ele>0</ele>
                                    <name>57</name>
                                </trkpt>
                                                                                                                                                                                                                                    <trkpt lat="40.54264257266831" lon="-7.308326726456754">
                                                                                                            <ele>0</ele>
                                    <name>58</name>
                                </trkpt>
                                                                                                                                                                                                                                    <trkpt lat="40.54267224940088" lon="-7.308520961285975">
                                                                                                            <ele>0</ele>
                                    <name>59</name>
                                </trkpt>
                                                                                                                                                                                                                                    <trkpt lat="40.54268050427628" lon="-7.308578531321983">
                                                                                                            <ele>0</ele>
                                    <name>60</name>
                                </trkpt>
                                                                                                            
                    </trkseg>
                </trk>
                                                            
    
</gpx>