<?xml version="1.0" encoding="UTF-8"?>
<kml xmlns="http://www.opengis.net/kml/2.2"  xmlns:gx="http://www.google.com/kml/ext/2.2" xmlns:kml="http://www.opengis.net/kml/2.2"    
     xmlns:atom="http://www.w3.org/2005/Atom">
    <Document>
        <name>Trajeto_3TTcubo_ 2026.gpx</name>
        
                                    
        <description><![CDATA[<br/><p>Converted from a KML file KML2GPX.COM </p><p><br/>Converted using <b><a href='http://gpx2kml.com' title='Go to gpx2kml.com'>gpx2kml.com</a></b></p><br/>]]></description>
        <visibility>1</visibility>
        <open>1</open>
        
                <Style id="red">
            <LineStyle>
            <color>C81400FF</color>
            <width>4</width>
            </LineStyle>
        </Style>
        <Style id="route_red">
            <LineStyle>
            <color>961400FF</color>
            <width>4</width>
            </LineStyle>
        </Style>
                <Style id="green">
            <LineStyle>
            <color>C878FF00</color>
            <width>4</width>
            </LineStyle>
        </Style>
        <Style id="route_green">
            <LineStyle>
            <color>9678FF00</color>
            <width>4</width>
            </LineStyle>
        </Style>
                <Style id="blue">
            <LineStyle>
            <color>C8FF7800</color>
            <width>4</width>
            </LineStyle>
        </Style>
        <Style id="route_blue">
            <LineStyle>
            <color>96FF7800</color>
            <width>4</width>
            </LineStyle>
        </Style>
                <Style id="cyan">
            <LineStyle>
            <color>C8F0FF14</color>
            <width>4</width>
            </LineStyle>
        </Style>
        <Style id="route_cyan">
            <LineStyle>
            <color>96F0FF14</color>
            <width>4</width>
            </LineStyle>
        </Style>
                <Style id="orange">
            <LineStyle>
            <color>C81478FF</color>
            <width>4</width>
            </LineStyle>
        </Style>
        <Style id="route_orange">
            <LineStyle>
            <color>961478FF</color>
            <width>4</width>
            </LineStyle>
        </Style>
                <Style id="dark_green">
            <LineStyle>
            <color>C8008C14</color>
            <width>4</width>
            </LineStyle>
        </Style>
        <Style id="route_dark_green">
            <LineStyle>
            <color>96008C14</color>
            <width>4</width>
            </LineStyle>
        </Style>
                <Style id="purple">
            <LineStyle>
            <color>C8FF7878</color>
            <width>4</width>
            </LineStyle>
        </Style>
        <Style id="route_purple">
            <LineStyle>
            <color>96FF7878</color>
            <width>4</width>
            </LineStyle>
        </Style>
                <Style id="pink">
            <LineStyle>
            <color>C8A078F0</color>
            <width>4</width>
            </LineStyle>
        </Style>
        <Style id="route_pink">
            <LineStyle>
            <color>96A078F0</color>
            <width>4</width>
            </LineStyle>
        </Style>
                <Style id="brown">
            <LineStyle>
            <color>C8143C96</color>
            <width>4</width>
            </LineStyle>
        </Style>
        <Style id="route_brown">
            <LineStyle>
            <color>96143C96</color>
            <width>4</width>
            </LineStyle>
        </Style>
                <Style id="dark_blue">
            <LineStyle>
            <color>C8F01414</color>
            <width>4</width>
            </LineStyle>
        </Style>
        <Style id="route_dark_blue">
            <LineStyle>
            <color>96F01414</color>
            <width>4</width>
            </LineStyle>
        </Style>
        
                
                
        <Folder>
            <name>Tracks</name>
            <description>A list of tracks</description>
            <visibility>1</visibility>            
            <open>0</open>
                                                            
                <Placemark>
                    <visibility>0</visibility>            
                    <open>0</open> 
                    <styleUrl>#red</styleUrl>
                    <name>Trajeto 2026.kml_Trajeto 2026</name>
                    <description>This is track no: 1
 - Track no. 1</description>
                    <LineString>
                        <extrude>true</extrude>
                        <tessellate>true</tessellate>
                        <altitudeMode>clampToGround</altitudeMode> 
                        <coordinates>
                            -7.296150,40.541019,0.00 -7.296110,40.540878,0.00 -7.296339,40.540687,0.00 -7.296743,40.540496,0.00 -7.297025,40.540531,0.00 -7.297437,40.540583,0.00 -7.297734,40.540519,0.00 -7.298047,40.540583,0.00 -7.298306,40.540745,0.00 -7.298642,40.540878,0.00 -7.298962,40.540931,0.00 -7.299298,40.540890,0.00 -7.299740,40.540658,0.00 -7.299953,40.540496,0.00 -7.300172,40.540345,0.00 -7.300420,40.540099,0.00 -7.300657,40.539944,0.00 -7.300884,40.539854,0.00 -7.301089,40.539722,0.00 -7.301283,40.539460,0.00 -7.301347,40.539313,0.00 -7.301537,40.538802,0.00 -7.301769,40.538160,0.00 -7.302005,40.538163,0.00 -7.302200,40.538204,0.00 -7.302599,40.538273,0.00 -7.303120,40.538346,0.00 -7.303578,40.538363,0.00 -7.303891,40.538390,0.00 -7.304063,40.538401,0.00 -7.304018,40.538070,0.00 -7.304015,40.537834,0.00 -7.303963,40.537477,0.00 -7.303953,40.536933,0.00 -7.304013,40.536407,0.00 -7.304028,40.536126,0.00 -7.304278,40.535633,0.00 -7.304687,40.534775,0.00 -7.305156,40.534727,0.00 -7.305692,40.534701,0.00 -7.306118,40.534579,0.00 -7.306425,40.534522,0.00 -7.306660,40.534628,0.00 -7.306765,40.534722,0.00 -7.306777,40.534832,0.00 -7.306713,40.534983,0.00 -7.306605,40.535154,0.00 -7.306466,40.535300,0.00 -7.306303,40.535472,0.00 -7.306358,40.535614,0.00 -7.306566,40.535735,0.00 -7.306736,40.535936,0.00 -7.306742,40.535936,0.00 -7.306906,40.536024,0.00 -7.307162,40.535923,0.00 -7.307487,40.535830,0.00 -7.307597,40.535813,0.00 -7.307799,40.535910,0.00 -7.307819,40.535919,0.00 -7.308222,40.536255,0.00 -7.308739,40.536490,0.00 -7.309076,40.536645,0.00 -7.309514,40.536656,0.00 -7.310355,40.536545,0.00 -7.310877,40.536433,0.00 -7.311343,40.536433,0.00 -7.311677,40.536647,0.00 -7.312137,40.536786,0.00 -7.312670,40.536985,0.00 -7.313390,40.537032,0.00 -7.314056,40.537144,0.00 -7.314615,40.537323,0.00 -7.314989,40.537377,0.00 -7.315379,40.537500,0.00 -7.315414,40.537517,0.00 -7.316009,40.537668,0.00 -7.316056,40.537672,0.00 -7.316099,40.537685,0.00 -7.316500,40.537711,0.00 -7.316506,40.537711,0.00 -7.317182,40.537813,0.00 -7.317531,40.537833,0.00 -7.317534,40.537825,0.00 -7.318018,40.537585,0.00 -7.318432,40.537325,0.00 -7.318437,40.537045,0.00 -7.318700,40.536954,0.00 -7.319132,40.536704,0.00 -7.319603,40.536312,0.00 -7.319745,40.536088,0.00 -7.320019,40.536010,0.00 -7.320191,40.535826,0.00 -7.320244,40.535702,0.00 -7.320248,40.535697,0.00 -7.320522,40.535549,0.00 -7.321208,40.535315,0.00 -7.321731,40.535058,0.00 -7.321834,40.534809,0.00 -7.322011,40.534664,0.00 -7.322209,40.534356,0.00 -7.322423,40.534093,0.00 -7.322552,40.533964,0.00 -7.322641,40.534042,0.00 -7.322680,40.534252,0.00 -7.322786,40.534922,0.00 -7.322816,40.535702,0.00 -7.322604,40.536125,0.00 -7.322236,40.536552,0.00 -7.322235,40.536568,0.00 -7.321918,40.537024,0.00 -7.321621,40.537393,0.00 -7.321558,40.537626,0.00 -7.321677,40.537791,0.00 -7.321867,40.537906,0.00 -7.322190,40.537880,0.00 -7.322427,40.537841,0.00 -7.322558,40.537839,0.00 -7.322671,40.537884,0.00 -7.323040,40.537922,0.00 -7.323334,40.537948,0.00 -7.324045,40.538028,0.00 -7.324363,40.537966,0.00 -7.324612,40.537931,0.00 -7.325197,40.538046,0.00 -7.325563,40.537918,0.00 -7.326112,40.537559,0.00 -7.326325,40.537374,0.00 -7.326416,40.536991,0.00 -7.326630,40.536528,0.00 -7.326798,40.535913,0.00 -7.326904,40.535415,0.00 -7.327194,40.534952,0.00 -7.327301,40.534476,0.00 -7.327453,40.534152,0.00 -7.327691,40.533676,0.00 -7.327763,40.533525,0.00 -7.327865,40.533316,0.00 -7.328005,40.532819,0.00 -7.327993,40.532529,0.00 -7.328199,40.532269,0.00 -7.328491,40.532214,0.00 -7.328732,40.532314,0.00 -7.329033,40.532551,0.00 -7.329161,40.532839,0.00 -7.329490,40.532656,0.00 -7.329818,40.532425,0.00 -7.329951,40.532294,0.00 -7.329806,40.531961,0.00 -7.329751,40.531724,0.00 -7.329803,40.531544,0.00 -7.329814,40.531538,0.00 -7.330013,40.531348,0.00 -7.330158,40.531223,0.00 -7.330192,40.530877,0.00 -7.330164,40.530456,0.00 -7.329967,40.530101,0.00 -7.329684,40.529830,0.00 -7.329463,40.529656,0.00 -7.329253,40.529450,0.00 -7.329241,40.529031,0.00 -7.329358,40.528251,0.00 -7.329567,40.527945,0.00 -7.329953,40.527748,0.00 -7.329963,40.527741,0.00 -7.330033,40.527469,0.00 -7.330049,40.527085,0.00 -7.330182,40.526891,0.00 -7.330200,40.526874,0.00 -7.330611,40.526483,0.00 -7.331028,40.525982,0.00 -7.331301,40.525542,0.00 -7.331639,40.525198,0.00 -7.332050,40.524797,0.00 -7.332061,40.524795,0.00 -7.332247,40.524538,0.00 -7.332364,40.523897,0.00 -7.332423,40.523335,0.00 -7.332498,40.523183,0.00 -7.332480,40.523043,0.00 -7.332447,40.522889,0.00 -7.332484,40.522755,0.00 -7.332622,40.522603,0.00 -7.332642,40.522585,0.00 -7.332771,40.522416,0.00 -7.332991,40.522167,0.00 -7.333448,40.521938,0.00 -7.333628,40.521863,0.00 -7.333577,40.521982,0.00 -7.333456,40.522154,0.00 -7.333427,40.522381,0.00 -7.333476,40.522622,0.00 -7.333704,40.522845,0.00 -7.333923,40.523003,0.00 -7.334049,40.523043,0.00 -7.334438,40.523117,0.00 -7.334522,40.523116,0.00 -7.334484,40.522952,0.00 -7.334501,40.522761,0.00 -7.334667,40.522720,0.00 -7.334896,40.522749,0.00 -7.334902,40.522748,0.00 -7.335302,40.522928,0.00 -7.335747,40.523057,0.00 -7.335955,40.523207,0.00 -7.335990,40.523505,0.00 -7.335979,40.523929,0.00 -7.336089,40.524149,0.00 -7.336513,40.524071,0.00 -7.336853,40.523799,0.00 -7.337518,40.523399,0.00 -7.337523,40.523392,0.00 -7.337975,40.523035,0.00 -7.337997,40.523027,0.00 -7.338035,40.523006,0.00 -7.338039,40.523000,0.00 -7.338805,40.522726,0.00 -7.339112,40.522484,0.00 -7.339405,40.522240,0.00 -7.339693,40.521844,0.00 -7.339954,40.521314,0.00 -7.340328,40.520747,0.00 -7.340725,40.520317,0.00 -7.340728,40.520313,0.00 -7.340831,40.520063,0.00 -7.340848,40.520058,0.00 -7.341179,40.519978,0.00 -7.341182,40.519974,0.00 -7.341681,40.519883,0.00 -7.341755,40.519790,0.00 -7.341718,40.519660,0.00 -7.341633,40.519535,0.00 -7.341429,40.519264,0.00 -7.341490,40.519045,0.00 -7.341688,40.518795,0.00 -7.341778,40.518608,0.00 -7.341599,40.518397,0.00 -7.341544,40.518228,0.00 -7.341558,40.518192,0.00 -7.341596,40.517917,0.00 -7.341625,40.517675,0.00 -7.341547,40.517584,0.00 -7.341381,40.517543,0.00 -7.341290,40.517513,0.00 -7.341252,40.517411,0.00 -7.341256,40.517404,0.00 -7.341289,40.517276,0.00 -7.341251,40.517143,0.00 -7.341192,40.517007,0.00 -7.341212,40.516896,0.00 -7.341220,40.516620,0.00 -7.341235,40.516366,0.00 -7.341218,40.516123,0.00 -7.341256,40.515931,0.00 -7.341310,40.515795,0.00 -7.341464,40.515538,0.00 -7.341582,40.515354,0.00 -7.341709,40.515099,0.00 -7.341856,40.515052,0.00 -7.341870,40.515051,0.00 -7.342181,40.515055,0.00 -7.342304,40.515067,0.00 -7.342351,40.514986,0.00 -7.342391,40.514824,0.00 -7.342642,40.514088,0.00 -7.343042,40.513191,0.00 -7.343108,40.513010,0.00 -7.343175,40.512854,0.00 -7.343180,40.512846,0.00 -7.343274,40.512754,0.00 -7.343463,40.512617,0.00 -7.344222,40.512197,0.00 -7.344500,40.512040,0.00 -7.344566,40.511939,0.00 -7.344690,40.511734,0.00 -7.344855,40.511602,0.00 -7.345046,40.511539,0.00 -7.345282,40.511361,0.00 -7.345587,40.511134,0.00 -7.346112,40.510759,0.00 -7.346284,40.510586,0.00 -7.346287,40.510583,0.00 -7.346466,40.510414,0.00 -7.346510,40.510266,0.00 -7.346544,40.510124,0.00 -7.346654,40.510025,0.00 -7.346657,40.510022,0.00 -7.346800,40.509949,0.00 -7.346751,40.509875,0.00 -7.346656,40.509834,0.00 -7.346614,40.509767,0.00 -7.346593,40.509493,0.00 -7.346547,40.509202,0.00 -7.346548,40.509186,0.00 -7.346547,40.509177,0.00 -7.346545,40.509164,0.00 -7.346551,40.508869,0.00 -7.346550,40.508854,0.00 -7.346579,40.508651,0.00 -7.346722,40.508444,0.00 -7.346728,40.508440,0.00 -7.347032,40.508265,0.00 -7.347397,40.507999,0.00 -7.347660,40.507732,0.00 -7.347781,40.507524,0.00 -7.348106,40.507328,0.00 -7.348849,40.506832,0.00 -7.349129,40.506653,0.00 -7.349340,40.506434,0.00 -7.349343,40.506431,0.00 -7.349498,40.506207,0.00 -7.349818,40.505911,0.00 -7.349830,40.505695,0.00 -7.349794,40.505497,0.00 -7.349756,40.505428,0.00 -7.349384,40.505484,0.00 -7.349002,40.505564,0.00 -7.348768,40.505589,0.00 -7.348691,40.505494,0.00 -7.348732,40.505155,0.00 -7.348840,40.504860,0.00 -7.349073,40.504687,0.00 -7.349298,40.504383,0.00 -7.349422,40.504058,0.00 -7.349631,40.503779,0.00 -7.349638,40.503772,0.00 -7.349748,40.503472,0.00 -7.349765,40.503145,0.00 -7.349841,40.502726,0.00 -7.349980,40.502375,0.00 -7.350178,40.502169,0.00 -7.350571,40.501953,0.00 -7.350594,40.501944,0.00 -7.350890,40.501839,0.00 -7.351168,40.501850,0.00 -7.351279,40.501761,0.00 -7.351392,40.501495,0.00 -7.351668,40.501332,0.00 -7.351810,40.501024,0.00 -7.352054,40.500713,0.00 -7.352185,40.500351,0.00 -7.352291,40.500054,0.00 -7.352298,40.500047,0.00 -7.352499,40.499767,0.00 -7.353013,40.499574,0.00 -7.353030,40.499572,0.00 -7.353398,40.499467,0.00 -7.353432,40.499463,0.00 -7.353943,40.499432,0.00 -7.354220,40.499563,0.00 -7.354336,40.499673,0.00 -7.354504,40.499930,0.00 -7.354785,40.500296,0.00 -7.355090,40.500802,0.00 -7.355314,40.500874,0.00 -7.355320,40.500873,0.00 -7.355766,40.500902,0.00 -7.356194,40.500827,0.00 -7.356964,40.500684,0.00 -7.357413,40.500596,0.00 -7.357692,40.500831,0.00 -7.357824,40.501240,0.00 -7.357903,40.501454,0.00 -7.357906,40.501463,0.00 -7.357961,40.501813,0.00 -7.358054,40.501974,0.00 -7.358497,40.502563,0.00 -7.358740,40.502787,0.00 -7.358964,40.502986,0.00 -7.359152,40.503149,0.00 -7.359301,40.503300,0.00 -7.359473,40.503597,0.00 -7.359700,40.503951,0.00 -7.359854,40.504045,0.00 -7.359861,40.504048,0.00 -7.360110,40.504226,0.00 -7.360170,40.504357,0.00 -7.360041,40.504561,0.00 -7.359982,40.504656,0.00 -7.360135,40.504760,0.00 -7.360450,40.504737,0.00 -7.360473,40.504732,0.00 -7.360757,40.504642,0.00 -7.360780,40.504637,0.00 -7.360957,40.504625,0.00 -7.360981,40.504620,0.00 -7.361013,40.504623,0.00 -7.361312,40.504654,0.00 -7.361626,40.504436,0.00 -7.361970,40.504133,0.00 -7.362446,40.503917,0.00 -7.362922,40.503840,0.00 -7.363151,40.503827,0.00 -7.363173,40.503822,0.00 -7.363456,40.503654,0.00 -7.363495,40.503631,0.00 -7.363506,40.503629,0.00 -7.363791,40.503600,0.00 -7.363802,40.503597,0.00 -7.364087,40.503540,0.00 -7.364109,40.503535,0.00 -7.364268,40.503446,0.00 -7.364288,40.503437,0.00 -7.364739,40.503354,0.00 -7.365325,40.503397,0.00 -7.366080,40.503305,0.00 -7.366104,40.503306,0.00 -7.366127,40.503306,0.00 -7.366680,40.503221,0.00 -7.366697,40.503218,0.00 -7.367229,40.503031,0.00 -7.367546,40.502936,0.00 -7.367562,40.502933,0.00 -7.367919,40.502732,0.00 -7.368308,40.502704,0.00 -7.368550,40.503330,0.00 -7.368524,40.503468,0.00 -7.368035,40.503632,0.00 -7.367615,40.503880,0.00 -7.367269,40.504113,0.00 -7.367143,40.504333,0.00 -7.366973,40.504600,0.00 -7.366665,40.504762,0.00 -7.366233,40.504728,0.00 -7.365897,40.504646,0.00 -7.365757,40.504588,0.00 -7.365746,40.504747,0.00 -7.365699,40.505155,0.00 -7.365747,40.505508,0.00 -7.365723,40.505750,0.00 -7.365545,40.506078,0.00 -7.365365,40.506326,0.00 -7.365572,40.506709,0.00 -7.365713,40.507047,0.00 -7.365500,40.507423,0.00 -7.365382,40.507615,0.00 -7.365671,40.507709,0.00 -7.365840,40.507700,0.00 -7.366312,40.507567,0.00 -7.366909,40.507383,0.00 -7.366926,40.507380,0.00 -7.366962,40.507355,0.00 -7.367542,40.507111,0.00 -7.367588,40.507096,0.00 -7.367596,40.507095,0.00 -7.368238,40.506725,0.00 -7.369366,40.506123,0.00 -7.369786,40.505906,0.00 -7.370478,40.505577,0.00 -7.370618,40.505492,0.00 -7.371036,40.505277,0.00 -7.371159,40.505201,0.00 -7.371678,40.505003,0.00 -7.371873,40.504768,0.00 -7.372159,40.504674,0.00 -7.372734,40.504673,0.00 -7.373035,40.504702,0.00 -7.373058,40.504699,0.00 -7.373170,40.504699,0.00 -7.373272,40.504647,0.00 -7.373321,40.504720,0.00 -7.373404,40.504908,0.00 -7.373615,40.505122,0.00 -7.373597,40.505193,0.00 -7.373442,40.505242,0.00 -7.373042,40.505190,0.00 -7.372851,40.505162,0.00 -7.372694,40.505209,0.00 -7.372602,40.505417,0.00 -7.372501,40.505500,0.00 -7.372284,40.505698,0.00 -7.371892,40.506068,0.00 -7.371716,40.506384,0.00 -7.371630,40.506478,0.00 -7.371394,40.506562,0.00 -7.371143,40.506550,0.00 -7.370973,40.506548,0.00 -7.370721,40.506595,0.00 -7.370518,40.506797,0.00 -7.370267,40.506981,0.00 -7.370038,40.507190,0.00 -7.370028,40.507352,0.00 -7.370396,40.507081,0.00 -7.370867,40.506883,0.00 -7.371436,40.506902,0.00 -7.371746,40.506972,0.00 -7.372018,40.506972,0.00 -7.372656,40.506784,0.00 -7.372903,40.506775,0.00 -7.373392,40.506991,0.00 -7.373887,40.507095,0.00 -7.374828,40.507288,0.00 -7.375330,40.507495,0.00 -7.375679,40.507631,0.00 -7.376045,40.507930,0.00 -7.376381,40.508664,0.00 -7.376637,40.509149,0.00 -7.376999,40.509417,0.00 -7.377531,40.509541,0.00 -7.377984,40.509270,0.00 -7.377996,40.509269,0.00 -7.378371,40.508785,0.00 -7.378358,40.508310,0.00 -7.378173,40.507598,0.00 -7.377968,40.507082,0.00 -7.377962,40.507040,0.00 -7.377913,40.506738,0.00 -7.377996,40.506379,0.00 -7.378017,40.506354,0.00 -7.378296,40.505939,0.00 -7.378565,40.505618,0.00 -7.378962,40.505367,0.00 -7.379018,40.505338,0.00 -7.379356,40.505210,0.00 -7.379877,40.505277,0.00 -7.380288,40.505467,0.00 -7.380995,40.505810,0.00 -7.381513,40.506076,0.00 -7.381705,40.506295,0.00 -7.381613,40.506650,0.00 -7.381451,40.507039,0.00 -7.381396,40.507348,0.00 -7.382048,40.507526,0.00 -7.382527,40.507558,0.00 -7.383458,40.507603,0.00 -7.383466,40.507603,0.00 -7.384351,40.507617,0.00 -7.384393,40.507618,0.00 -7.384710,40.507717,0.00 -7.384718,40.507716,0.00 -7.384969,40.507748,0.00 -7.385446,40.507376,0.00 -7.385973,40.506987,0.00 -7.385980,40.506985,0.00 -7.386637,40.506694,0.00 -7.387333,40.506739,0.00 -7.387992,40.506716,0.00 -7.388443,40.506765,0.00 -7.388584,40.506772,0.00 -7.388591,40.506769,0.00 -7.388675,40.506593,0.00 -7.388677,40.506582,0.00 -7.388660,40.506316,0.00 -7.388608,40.506117,0.00 -7.388606,40.506101,0.00 -7.388471,40.505943,0.00 -7.388315,40.505863,0.00 -7.388375,40.505749,0.00 -7.388473,40.505692,0.00 -7.388597,40.505670,0.00 -7.388780,40.505778,0.00 -7.388902,40.505810,0.00 -7.389019,40.505820,0.00 -7.389054,40.505485,0.00 -7.389354,40.505022,0.00 -7.389755,40.504374,0.00 -7.389899,40.504270,0.00 -7.390078,40.504277,0.00 -7.390182,40.504338,0.00 -7.390199,40.504478,0.00 -7.390097,40.505194,0.00 -7.390116,40.505525,0.00 -7.390245,40.505792,0.00 -7.390397,40.505971,0.00 -7.390474,40.506361,0.00 -7.390522,40.506704,0.00 -7.390656,40.506938,0.00 -7.390931,40.506911,0.00 -7.391147,40.506825,0.00 -7.391267,40.506626,0.00 -7.391379,40.506354,0.00 -7.391527,40.506379,0.00 -7.391662,40.506516,0.00 -7.391856,40.506774,0.00 -7.392235,40.506872,0.00 -7.392716,40.507039,0.00 -7.392948,40.507124,0.00 -7.393065,40.506629,0.00 -7.393182,40.506190,0.00 -7.393181,40.506174,0.00 -7.393435,40.505892,0.00 -7.393451,40.505888,0.00 -7.393625,40.505675,0.00 -7.393715,40.505412,0.00 -7.393830,40.505340,0.00 -7.394330,40.505037,0.00 -7.394840,40.504885,0.00 -7.395258,40.504796,0.00 -7.395508,40.504840,0.00 -7.395764,40.504947,0.00 -7.395994,40.505053,0.00 -7.395999,40.505052,0.00 -7.396239,40.504856,0.00 -7.396294,40.504753,0.00 -7.396271,40.504605,0.00 -7.396268,40.504362,0.00 -7.396300,40.504185,0.00 -7.396335,40.504000,0.00 -7.396384,40.503932,0.00 -7.396672,40.503811,0.00 -7.396858,40.503706,0.00 -7.396862,40.503705,0.00 -7.397148,40.503409,0.00 -7.397292,40.503163,0.00 -7.397460,40.502852,0.00 -7.397662,40.502693,0.00 -7.398020,40.502434,0.00 -7.398316,40.502356,0.00 -7.398487,40.502340,0.00 -7.398654,40.502279,0.00 -7.398242,40.501453,0.00 -7.398281,40.501355,0.00 -7.398945,40.501499,0.00 -7.399418,40.501570,0.00 -7.399976,40.501824,0.00 -7.400321,40.501996,0.00 -7.401107,40.502568,0.00 -7.401287,40.502728,0.00 -7.401502,40.502539,0.00 -7.401529,40.502086,0.00 -7.401580,40.501866,0.00 -7.401933,40.501802,0.00 -7.402296,40.501893,0.00 -7.402521,40.501920,0.00 -7.402830,40.501746,0.00 -7.403253,40.501465,0.00 -7.403356,40.501281,0.00 -7.403409,40.500990,0.00 -7.403540,40.500714,0.00 -7.403747,40.500527,0.00 -7.403766,40.500509,0.00 -7.404164,40.500742,0.00 -7.404776,40.501246,0.00 -7.404787,40.501265,0.00 -7.405366,40.501769,0.00 -7.405493,40.501951,0.00 -7.405534,40.502568,0.00 -7.405437,40.503396,0.00 -7.405402,40.503739,0.00 -7.406587,40.504713,0.00 -7.407340,40.505362,0.00 -7.407776,40.505589,0.00 -7.408504,40.505959,0.00 -7.408989,40.506251,0.00 -7.409138,40.506694,0.00 -7.409296,40.507380,0.00 -7.409383,40.508149,0.00 -7.409228,40.508918,0.00 -7.408887,40.509735,0.00 -7.409305,40.510432,0.00 -7.409824,40.511206,0.00 -7.409918,40.511397,0.00 -7.409640,40.512502,0.00 -7.409545,40.513186,0.00 -7.409286,40.514113,0.00 -7.409282,40.514396,0.00 -7.409089,40.514741,0.00 -7.408883,40.514981,0.00 -7.408410,40.514843,0.00 -7.408103,40.514749,0.00 -7.407866,40.514660,0.00 -7.407393,40.514491,0.00 -7.407138,40.514420,0.00 -7.407044,40.514388,0.00 -7.406886,40.514402,0.00 -7.406399,40.514410,0.00 -7.406152,40.514418,0.00 -7.405991,40.514445,0.00 -7.405413,40.514529,0.00 -7.404667,40.514645,0.00 -7.404322,40.514766,0.00 -7.404149,40.515067,0.00 -7.404094,40.515334,0.00 -7.404197,40.515624,0.00 -7.404471,40.515987,0.00 -7.404718,40.516305,0.00 -7.404852,40.516486,0.00 -7.404873,40.516695,0.00 -7.404712,40.516813,0.00 -7.404087,40.516798,0.00 -7.403629,40.516794,0.00 -7.403424,40.516793,0.00 -7.403295,40.516862,0.00 -7.403176,40.516756,0.00 -7.402974,40.516712,0.00 -7.402524,40.516656,0.00 -7.402543,40.516794,0.00 -7.402580,40.516932,0.00 -7.402610,40.517124,0.00 -7.402704,40.517436,0.00 -7.402794,40.517598,0.00 -7.403061,40.517744,0.00 -7.403383,40.517845,0.00 -7.403780,40.517968,0.00 -7.403993,40.518091,0.00 -7.404417,40.518186,0.00 -7.404781,40.518261,0.00 -7.404800,40.518264,0.00 -7.404832,40.518267,0.00 -7.404854,40.518266,0.00 -7.404859,40.518268,0.00 -7.405296,40.518322,0.00 -7.405875,40.518402,0.00 -7.406563,40.518475,0.00 -7.407282,40.518509,0.00 -7.407864,40.518728,0.00 -7.408339,40.518877,0.00 -7.408693,40.518958,0.00 -7.408982,40.519086,0.00 -7.409228,40.519231,0.00 -7.409505,40.519509,0.00 -7.409590,40.519805,0.00 -7.409890,40.520081,0.00 -7.410158,40.520332,0.00 -7.410168,40.520338,0.00 -7.410433,40.520506,0.00 -7.410726,40.520612,0.00 -7.411333,40.520810,0.00 -7.411345,40.520813,0.00 -7.412034,40.521114,0.00 -7.412560,40.521364,0.00 -7.413096,40.521688,0.00 -7.413379,40.521803,0.00 -7.413307,40.521699,0.00 -7.413069,40.521315,0.00 -7.412638,40.521095,0.00 -7.412221,40.520726,0.00 -7.411973,40.520470,0.00 -7.411968,40.520412,0.00 -7.411918,40.519798,0.00 -7.412369,40.519367,0.00 -7.413047,40.518532,0.00 -7.413299,40.518376,0.00 -7.412890,40.517994,0.00 -7.412500,40.517711,0.00 -7.412254,40.517389,0.00 -7.412005,40.516840,0.00 -7.411817,40.516530,0.00 -7.411514,40.516299,0.00 -7.410807,40.515948,0.00 -7.410449,40.515787,0.00 -7.410108,40.515585,0.00 -7.409686,40.515402,0.00 -7.409339,40.515267,0.00 -7.409145,40.515137,0.00 -7.409095,40.515095,0.00 -7.409163,40.515048,0.00 -7.409256,40.515038,0.00 -7.409383,40.515066,0.00 -7.409655,40.515097,0.00 -7.409895,40.515139,0.00 -7.410559,40.515162,0.00 -7.411037,40.515095,0.00 -7.411469,40.515077,0.00 -7.411496,40.515077,0.00 -7.411506,40.515080,0.00 -7.411734,40.515120,0.00 -7.412167,40.515083,0.00 -7.412457,40.514957,0.00 -7.412468,40.514953,0.00 -7.412696,40.514819,0.00 -7.413007,40.514738,0.00 -7.413381,40.514760,0.00 -7.413391,40.514759,0.00 -7.413397,40.514756,0.00 -7.413578,40.514692,0.00 -7.413587,40.514689,0.00 -7.413597,40.514579,0.00 -7.413530,40.514378,0.00 -7.413640,40.514157,0.00 -7.413905,40.513842,0.00 -7.413911,40.513839,0.00 -7.414508,40.513565,0.00 -7.414559,40.513544,0.00 -7.415067,40.513216,0.00 -7.415482,40.513043,0.00 -7.415498,40.513043,0.00 -7.415976,40.512890,0.00 -7.416180,40.512724,0.00 -7.416528,40.512499,0.00 -7.416484,40.512132,0.00 -7.416517,40.511905,0.00 -7.416782,40.511654,0.00 -7.416802,40.511639,0.00 -7.416848,40.511620,0.00 -7.416887,40.511590,0.00 -7.417154,40.511367,0.00 -7.417197,40.511345,0.00 -7.417650,40.511087,0.00 -7.417693,40.511065,0.00 -7.417970,40.510923,0.00 -7.418154,40.510693,0.00 -7.418288,40.510577,0.00 -7.418311,40.510570,0.00 -7.418704,40.510521,0.00 -7.419359,40.510385,0.00 -7.419392,40.510381,0.00 -7.419398,40.510379,0.00 -7.419905,40.510315,0.00 -7.419955,40.510312,0.00 -7.419983,40.510310,0.00 -7.420533,40.510341,0.00 -7.420578,40.510340,0.00 -7.421222,40.510347,0.00 -7.421266,40.510341,0.00 -7.421292,40.510333,0.00 -7.421950,40.510248,0.00 -7.422370,40.510271,0.00 -7.422550,40.510179,0.00 -7.422590,40.509997,0.00 -7.422527,40.509636,0.00 -7.422805,40.509216,0.00 -7.422812,40.509207,0.00 -7.422931,40.509112,0.00 -7.423157,40.509016,0.00 -7.424246,40.508936,0.00 -7.424966,40.509119,0.00 -7.424978,40.509128,0.00 -7.425676,40.509331,0.00 -7.425722,40.509343,0.00 -7.425756,40.509346,0.00 -7.426039,40.509426,0.00 -7.426046,40.509424,0.00 -7.426388,40.509222,0.00 -7.426421,40.509211,0.00 -7.426773,40.509149,0.00 -7.426786,40.509144,0.00 -7.427288,40.509144,0.00 -7.427299,40.509147,0.00 -7.427781,40.509232,0.00 -7.428423,40.509260,0.00 -7.429130,40.509215,0.00 -7.429170,40.509216,0.00 -7.429176,40.509213,0.00 -7.429942,40.509172,0.00 -7.429972,40.509169,0.00 -7.429995,40.509167,0.00 -7.430805,40.509104,0.00 -7.431366,40.509144,0.00 -7.431734,40.509366,0.00 -7.431913,40.509400,0.00 -7.432335,40.509374,0.00 -7.432523,40.509417,0.00 -7.432801,40.509365,0.00 -7.432814,40.509361,0.00 -7.433026,40.509220,0.00 -7.433222,40.508946,0.00 -7.433254,40.508920,0.00 -7.433267,40.508916,0.00 -7.433962,40.508630,0.00 -7.434352,40.508731,0.00 -7.434359,40.508729,0.00 -7.435218,40.508675,0.00 -7.435741,40.508048,0.00 -7.435939,40.507811,0.00 -7.435966,40.507800,0.00 -7.437039,40.507665,0.00 -7.437650,40.507774,0.00 -7.438221,40.507619,0.00 -7.438240,40.507604,0.00 -7.439196,40.507134,0.00 -7.439211,40.507129,0.00 -7.439799,40.506771,0.00 -7.439882,40.506723,0.00 -7.439896,40.506718,0.00 -7.440543,40.506171,0.00 -7.440551,40.506159,0.00 -7.441641,40.505120,0.00 -7.442606,40.504285,0.00 -7.442857,40.503663,0.00 -7.443059,40.503256,0.00 -7.443466,40.502407,0.00 -7.443462,40.502066,0.00 -7.443266,40.501737,0.00 -7.443032,40.501437,0.00 -7.443014,40.501414,0.00 -7.442666,40.501068,0.00 -7.442655,40.501045,0.00 -7.442652,40.501041,0.00 -7.441947,40.500297,0.00 -7.441360,40.499641,0.00 -7.441336,40.499628,0.00 -7.440920,40.499322,0.00 -7.440406,40.499103,0.00 -7.440083,40.499062,0.00 -7.439774,40.499131,0.00 -7.439351,40.499132,0.00 -7.438090,40.499048,0.00 -7.437254,40.498898,0.00 -7.436936,40.498870,0.00 -7.436426,40.498976,0.00 -7.435943,40.499083,0.00 -7.435522,40.499070,0.00 -7.435025,40.499035,0.00 -7.434290,40.499055,0.00 -7.432990,40.498642,0.00 -7.432212,40.498423,0.00 -7.432198,40.498429,0.00 -7.431308,40.498118,0.00 -7.431299,40.498114,0.00 -7.430713,40.497882,0.00 -7.430666,40.497873,0.00 -7.429730,40.497393,0.00 -7.429494,40.497167,0.00 -7.429144,40.496583,0.00 -7.428818,40.496221,0.00 -7.428798,40.496198,0.00 -7.428464,40.495920,0.00 -7.428001,40.495783,0.00 -7.427529,40.495689,0.00 -7.427206,40.495543,0.00 -7.426972,40.495185,0.00 -7.426735,40.494878,0.00 -7.426427,40.494714,0.00 -7.426130,40.494532,0.00 -7.426094,40.494509,0.00 -7.425785,40.494382,0.00 -7.425590,40.494139,0.00 -7.425640,40.493849,0.00 -7.425867,40.493553,0.00 -7.426240,40.493279,0.00 -7.426248,40.493277,0.00 -7.426523,40.493006,0.00 -7.426558,40.492861,0.00 -7.426563,40.492833,0.00 -7.426451,40.492650,0.00 -7.426433,40.492630,0.00 -7.426244,40.492418,0.00 -7.426225,40.492406,0.00 -7.426019,40.492277,0.00 -7.426015,40.492273,0.00 -7.425794,40.492200,0.00 -7.425616,40.492136,0.00 -7.425332,40.492213,0.00 -7.425099,40.492313,0.00 -7.424864,40.492550,0.00 -7.424588,40.492623,0.00 -7.424537,40.492605,0.00 -7.424510,40.492608,0.00 -7.424307,40.492560,0.00 -7.423525,40.492471,0.00 -7.422289,40.492167,0.00 -7.421729,40.491942,0.00 -7.421696,40.491916,0.00 -7.421334,40.491679,0.00 -7.421302,40.491668,0.00 -7.421130,40.491714,0.00 -7.420874,40.491964,0.00 -7.420498,40.492016,0.00 -7.420045,40.491979,0.00 -7.419834,40.491951,0.00 -7.419759,40.491659,0.00 -7.419590,40.491334,0.00 -7.419583,40.491310,0.00 -7.419563,40.491281,0.00 -7.419167,40.490907,0.00 -7.418925,40.490805,0.00 -7.418907,40.490794,0.00 -7.418460,40.490694,0.00 -7.418141,40.490714,0.00 -7.417715,40.490862,0.00 -7.417548,40.490707,0.00 -7.417223,40.490401,0.00 -7.416959,40.489886,0.00 -7.416705,40.489391,0.00 -7.416605,40.489030,0.00 -7.416581,40.488762,0.00 -7.416575,40.488747,0.00 -7.416520,40.488414,0.00 -7.416470,40.488188,0.00 -7.416331,40.487895,0.00 -7.415762,40.487391,0.00 -7.415472,40.487034,0.00 -7.415267,40.486806,0.00 -7.415070,40.486450,0.00 -7.414981,40.486272,0.00 -7.414966,40.486206,0.00 -7.415112,40.485970,0.00 -7.415475,40.485858,0.00 -7.415770,40.485773,0.00 -7.416120,40.485537,0.00 -7.417067,40.484742,0.00 -7.417076,40.484738,0.00 -7.417764,40.483863,0.00 -7.417779,40.483855,0.00 -7.418372,40.483175,0.00 -7.418382,40.483170,0.00 -7.418912,40.482483,0.00 -7.419054,40.482296,0.00 -7.418985,40.482179,0.00 -7.418795,40.482225,0.00 -7.418606,40.482231,0.00 -7.418349,40.482212,0.00 -7.418164,40.482119,0.00 -7.418148,40.482116,0.00 -7.417928,40.481929,0.00 -7.416150,40.480277,0.00 -7.415983,40.480078,0.00 -7.416021,40.479883,0.00 -7.416361,40.479581,0.00 -7.416936,40.478000,0.00 -7.417082,40.477224,0.00 -7.417154,40.476909,0.00 -7.417159,40.476888,0.00 -7.417164,40.476880,0.00 -7.417266,40.476461,0.00 -7.417276,40.476429,0.00 -7.417280,40.476398,0.00 -7.417205,40.476034,0.00 -7.417089,40.475725,0.00 -7.417082,40.475714,0.00 -7.416907,40.475528,0.00 -7.415689,40.474267,0.00 -7.415368,40.473932,0.00 -7.415242,40.473415,0.00 -7.415151,40.472978,0.00 -7.415142,40.472845,0.00 -7.415175,40.472599,0.00 -7.415181,40.472450,0.00 -7.415128,40.471294,0.00 -7.415107,40.470924,0.00 -7.415088,40.470720,0.00 -7.415089,40.470715,0.00 -7.414971,40.470359,0.00 -7.414864,40.470039,0.00 -7.414733,40.469945,0.00 -7.414563,40.469973,0.00 -7.414452,40.470181,0.00 -7.414062,40.470505,0.00 -7.413739,40.470734,0.00 -7.413439,40.470928,0.00 -7.412817,40.471199,0.00 -7.412501,40.471239,0.00 -7.412247,40.471071,0.00 -7.411982,40.470642,0.00 -7.411832,40.470195,0.00 -7.411554,40.469698,0.00 -7.411548,40.469691,0.00 -7.411229,40.469028,0.00 -7.411102,40.468415,0.00 -7.410885,40.467054,0.00 -7.410923,40.466217,0.00 -7.410920,40.466198,0.00 -7.410940,40.465571,0.00 -7.410941,40.465530,0.00 -7.410934,40.465008,0.00 -7.410757,40.464473,0.00 -7.410511,40.464026,0.00 -7.410296,40.463632,0.00 -7.410009,40.463153,0.00 -7.409588,40.462672,0.00 -7.408752,40.462031,0.00 -7.408082,40.461440,0.00 -7.407541,40.461049,0.00 -7.407528,40.461047,0.00 -7.407501,40.461017,0.00 -7.407430,40.460976,0.00 -7.406896,40.460571,0.00 -7.406863,40.460546,0.00 -7.406274,40.460136,0.00 -7.404645,40.458909,0.00 -7.404082,40.458436,0.00 -7.403746,40.457909,0.00 -7.403520,40.457518,0.00 -7.403509,40.457467,0.00 -7.403504,40.457461,0.00 -7.403397,40.457201,0.00 -7.403390,40.457167,0.00 -7.403382,40.457107,0.00 -7.403368,40.457078,0.00 -7.403131,40.456556,0.00 -7.402785,40.455926,0.00 -7.402652,40.455530,0.00 -7.402333,40.454722,0.00 -7.402323,40.454697,0.00 -7.402141,40.454288,0.00 -7.402135,40.454281,0.00 -7.402034,40.454231,0.00 -7.402223,40.454099,0.00 -7.402358,40.454061,0.00 -7.402489,40.454059,0.00 -7.402832,40.454110,0.00 -7.403012,40.454186,0.00 -7.403168,40.454172,0.00 -7.403222,40.454121,0.00 -7.403247,40.454059,0.00 -7.403202,40.453949,0.00 -7.403134,40.453808,0.00 -7.403039,40.453616,0.00 -7.402994,40.453382,0.00 -7.402967,40.453149,0.00 -7.402945,40.452600,0.00 -7.402934,40.452463,0.00 -7.402972,40.452230,0.00 -7.403098,40.451979,0.00 -7.403240,40.451766,0.00 -7.403347,40.451531,0.00 -7.403395,40.451321,0.00 -7.403481,40.451170,0.00 -7.403576,40.451065,0.00 -7.403694,40.450984,0.00 -7.403881,40.450945,0.00 -7.404080,40.450960,0.00 -7.404281,40.451048,0.00 -7.404926,40.451296,0.00 -7.405563,40.451479,0.00 -7.405903,40.451546,0.00 -7.406121,40.451557,0.00 -7.406383,40.451516,0.00 -7.406461,40.451507,0.00 -7.406432,40.451394,0.00 -7.406235,40.451050,0.00 -7.406273,40.450900,0.00 -7.406448,40.450849,0.00 -7.406590,40.450815,0.00 -7.406884,40.450813,0.00 -7.406987,40.450840,0.00 -7.407128,40.450847,0.00 -7.407183,40.450746,0.00 -7.407065,40.450582,0.00 -7.406612,40.450203,0.00 -7.406490,40.450019,0.00 -7.406177,40.449733,0.00 -7.405812,40.449530,0.00 -7.405573,40.449438,0.00 -7.405461,40.449392,0.00 -7.405346,40.449182,0.00 -7.405272,40.449029,0.00 -7.405260,40.448919,0.00 -7.405237,40.448767,0.00 -7.404779,40.448344,0.00 -7.404563,40.448129,0.00 -7.404274,40.447770,0.00 -7.404208,40.447671,0.00 -7.404165,40.447561,0.00 -7.404133,40.447462,0.00 -7.404023,40.447397,0.00 -7.403878,40.447364,0.00 -7.403722,40.447377,0.00 -7.403467,40.447380,0.00 -7.403274,40.447374,0.00 -7.403083,40.447346,0.00 -7.402814,40.447289,0.00 -7.401862,40.447136,0.00 -7.401698,40.447199,0.00 -7.401547,40.447319,0.00 -7.401116,40.447431,0.00 -7.400700,40.447559,0.00 -7.400520,40.447644,0.00 -7.400099,40.447918,0.00 -7.399885,40.448120,0.00 -7.399790,40.448239,0.00 -7.399735,40.448322,0.00 -7.399638,40.448499,0.00 -7.399609,40.448572,0.00 -7.399457,40.448655,0.00 -7.399397,40.448652,0.00 -7.399302,40.448650,0.00 -7.399194,40.448589,0.00 -7.399061,40.448519,0.00 -7.398920,40.448454,0.00 -7.398815,40.448412,0.00 -7.398681,40.448363,0.00 -7.398265,40.448096,0.00 -7.397946,40.447887,0.00 -7.397773,40.447790,0.00 -7.397675,40.447756,0.00 -7.397459,40.447676,0.00 -7.397293,40.447619,0.00 -7.397022,40.447701,0.00 -7.396654,40.447840,0.00 -7.396395,40.447951,0.00 -7.396227,40.448118,0.00 -7.395943,40.448429,0.00 -7.395804,40.448762,0.00 -7.395644,40.448980,0.00 -7.395400,40.449061,0.00 -7.394784,40.449284,0.00 -7.394277,40.449451,0.00 -7.393944,40.449599,0.00 -7.393608,40.449991,0.00 -7.392990,40.450525,0.00 -7.392551,40.450864,0.00 -7.392157,40.451188,0.00 -7.391713,40.451430,0.00 -7.391359,40.451614,0.00 -7.391341,40.451617,0.00 -7.391132,40.451725,0.00 -7.390950,40.451959,0.00 -7.390775,40.452173,0.00 -7.390375,40.452531,0.00 -7.389877,40.452646,0.00 -7.389257,40.452970,0.00 -7.388757,40.453186,0.00 -7.388725,40.453189,0.00 -7.388250,40.453427,0.00 -7.387833,40.453540,0.00 -7.387470,40.453559,0.00 -7.387251,40.453615,0.00 -7.386860,40.454056,0.00 -7.386718,40.454270,0.00 -7.386279,40.454512,0.00 -7.385973,40.454640,0.00 -7.385672,40.454808,0.00 -7.384915,40.455270,0.00 -7.384464,40.455598,0.00 -7.384066,40.455798,0.00 -7.383628,40.456038,0.00 -7.383617,40.456044,0.00 -7.383174,40.456341,0.00 -7.383026,40.456342,0.00 -7.382772,40.456435,0.00 -7.382760,40.456439,0.00 -7.382490,40.456599,0.00 -7.382099,40.456749,0.00 -7.382092,40.456755,0.00 -7.381807,40.456844,0.00 -7.381791,40.456845,0.00 -7.381457,40.456918,0.00 -7.381425,40.456920,0.00 -7.381398,40.456924,0.00 -7.381139,40.456977,0.00 -7.380736,40.457041,0.00 -7.380700,40.457040,0.00 -7.380466,40.457073,0.00 -7.380439,40.457072,0.00 -7.380427,40.457075,0.00 -7.380159,40.457113,0.00 -7.380141,40.457117,0.00 -7.380095,40.457125,0.00 -7.380069,40.457135,0.00 -7.379842,40.457193,0.00 -7.379827,40.457194,0.00 -7.379803,40.457196,0.00 -7.379464,40.457295,0.00 -7.379461,40.457298,0.00 -7.379306,40.457358,0.00 -7.378996,40.457388,0.00 -7.378730,40.457480,0.00 -7.378524,40.457529,0.00 -7.378500,40.457525,0.00 -7.378231,40.457511,0.00 -7.377957,40.457415,0.00 -7.377738,40.457285,0.00 -7.377715,40.457267,0.00 -7.377510,40.457178,0.00 -7.377505,40.457175,0.00 -7.377199,40.457111,0.00 -7.376964,40.457168,0.00 -7.376731,40.457346,0.00 -7.376546,40.457416,0.00 -7.376534,40.457419,0.00 -7.376371,40.457525,0.00 -7.376235,40.457511,0.00 -7.376220,40.457505,0.00 -7.376105,40.457459,0.00 -7.376098,40.457453,0.00 -7.375932,40.457378,0.00 -7.375928,40.457375,0.00 -7.375761,40.457362,0.00 -7.375753,40.457362,0.00 -7.375679,40.457394,0.00 -7.375603,40.457538,0.00 -7.375466,40.457606,0.00 -7.375273,40.457681,0.00 -7.375018,40.457707,0.00 -7.374801,40.457733,0.00 -7.374625,40.457817,0.00 -7.374452,40.457890,0.00 -7.374433,40.457898,0.00 -7.374285,40.457965,0.00 -7.373968,40.458069,0.00 -7.373613,40.458047,0.00 -7.373219,40.457999,0.00 -7.373206,40.457997,0.00 -7.372924,40.457977,0.00 -7.372754,40.457979,0.00 -7.372405,40.458149,0.00 -7.372001,40.458459,0.00 -7.371790,40.458537,0.00 -7.371682,40.458598,0.00 -7.371548,40.458612,0.00 -7.371543,40.458609,0.00 -7.371448,40.458578,0.00 -7.371326,40.458536,0.00 -7.371247,40.458594,0.00 -7.371098,40.458688,0.00 -7.370985,40.458693,0.00 -7.370774,40.458662,0.00 -7.370628,40.458638,0.00 -7.370498,40.458648,0.00 -7.370494,40.458652,0.00 -7.370364,40.458723,0.00 -7.370321,40.458744,0.00 -7.370205,40.458785,0.00 -7.370150,40.458798,0.00 -7.369899,40.458774,0.00 -7.369642,40.458680,0.00 -7.369396,40.458638,0.00 -7.369386,40.458639,0.00 -7.369224,40.458695,0.00 -7.369044,40.458745,0.00 -7.369030,40.458750,0.00 -7.368790,40.458844,0.00 -7.368776,40.458848,0.00 -7.368562,40.458923,0.00 -7.368418,40.458969,0.00 -7.368326,40.458995,0.00 -7.368157,40.459004,0.00 -7.367985,40.459023,0.00 -7.367733,40.459125,0.00 -7.367662,40.459176,0.00 -7.367514,40.459319,0.00 -7.367416,40.459452,0.00 -7.367423,40.459628,0.00 -7.367380,40.459802,0.00 -7.367265,40.459963,0.00 -7.367168,40.460014,0.00 -7.367082,40.459959,0.00 -7.367074,40.459784,0.00 -7.367045,40.459337,0.00 -7.367011,40.458739,0.00 -7.366983,40.458545,0.00 -7.366894,40.458493,0.00 -7.366807,40.458516,0.00 -7.366600,40.458592,0.00 -7.366388,40.458671,0.00 -7.366372,40.458675,0.00 -7.366199,40.458754,0.00 -7.366137,40.458859,0.00 -7.366073,40.459036,0.00 -7.365986,40.459096,0.00 -7.365902,40.459066,0.00 -7.365838,40.458963,0.00 -7.365688,40.458632,0.00 -7.365693,40.458491,0.00 -7.365720,40.458342,0.00 -7.365719,40.458336,0.00 -7.365670,40.458241,0.00 -7.365572,40.458271,0.00 -7.365485,40.458352,0.00 -7.365473,40.458512,0.00 -7.365471,40.458657,0.00 -7.365416,40.458703,0.00 -7.365311,40.458729,0.00 -7.365223,40.458618,0.00 -7.365180,40.458423,0.00 -7.365178,40.458405,0.00 -7.365111,40.458193,0.00 -7.365177,40.457995,0.00 -7.365249,40.457777,0.00 -7.365196,40.457681,0.00 -7.365185,40.457674,0.00 -7.365089,40.457663,0.00 -7.365009,40.457693,0.00 -7.364932,40.457760,0.00 -7.364879,40.457771,0.00 -7.364858,40.457782,0.00 -7.364788,40.457768,0.00 -7.364750,40.457754,0.00 -7.364696,40.457756,0.00 -7.364648,40.457771,0.00 -7.364643,40.457877,0.00 -7.364624,40.457953,0.00 -7.364600,40.458024,0.00 -7.364532,40.458117,0.00 -7.364464,40.458224,0.00 -7.364371,40.458316,0.00 -7.364366,40.458321,0.00 -7.364290,40.458411,0.00 -7.364198,40.458572,0.00 -7.364173,40.458735,0.00 -7.364058,40.458997,0.00 -7.364039,40.459158,0.00 -7.364010,40.459393,0.00 -7.363911,40.459511,0.00 -7.363802,40.459646,0.00 -7.363720,40.459853,0.00 -7.363630,40.460035,0.00 -7.363595,40.460176,0.00 -7.363666,40.460266,0.00 -7.363583,40.460448,0.00 -7.363516,40.460552,0.00 -7.363434,40.460645,0.00 -7.363310,40.460727,0.00 -7.363302,40.460733,0.00 -7.363180,40.460802,0.00 -7.363170,40.460804,0.00 -7.363026,40.460907,0.00 -7.362875,40.461026,0.00 -7.362867,40.461035,0.00 -7.362765,40.461145,0.00 -7.362686,40.461233,0.00 -7.362572,40.461366,0.00 -7.362447,40.461477,0.00 -7.362302,40.461570,0.00 -7.362243,40.461616,0.00 -7.362173,40.461688,0.00 -7.362039,40.461759,0.00 -7.361920,40.461725,0.00 -7.361917,40.461724,0.00 -7.361790,40.461677,0.00 -7.361780,40.461679,0.00 -7.361597,40.461719,0.00 -7.361455,40.461791,0.00 -7.361282,40.461894,0.00 -7.361140,40.461973,0.00 -7.361092,40.462015,0.00 -7.361076,40.462031,0.00 -7.360991,40.462155,0.00 -7.360938,40.462256,0.00 -7.360859,40.462343,0.00 -7.360718,40.462487,0.00 -7.360347,40.462800,0.00 -7.360047,40.463116,0.00 -7.359759,40.463311,0.00 -7.359610,40.463435,0.00 -7.359537,40.463490,0.00 -7.359450,40.463505,0.00 -7.359325,40.463555,0.00 -7.359315,40.463561,0.00 -7.359117,40.463659,0.00 -7.358910,40.463818,0.00 -7.358909,40.463957,0.00 -7.358887,40.464107,0.00 -7.358730,40.464334,0.00 -7.358583,40.464598,0.00 -7.358375,40.464895,0.00 -7.358065,40.465263,0.00 -7.357791,40.465621,0.00 -7.357694,40.465860,0.00 -7.357558,40.466062,0.00 -7.357325,40.466141,0.00 -7.357319,40.466141,0.00 -7.357133,40.466184,0.00 -7.357118,40.466191,0.00 -7.356861,40.466386,0.00 -7.356763,40.466591,0.00 -7.356731,40.466755,0.00 -7.356629,40.467059,0.00 -7.356553,40.467373,0.00 -7.356450,40.467520,0.00 -7.356390,40.467640,0.00 -7.356407,40.467794,0.00 -7.356394,40.467884,0.00 -7.356385,40.467895,0.00 -7.356370,40.467906,0.00 -7.356277,40.468025,0.00 -7.356167,40.468191,0.00 -7.356130,40.468323,0.00 -7.356121,40.468333,0.00 -7.356107,40.468349,0.00 -7.356086,40.468373,0.00 -7.355934,40.468578,0.00 -7.355744,40.468906,0.00 -7.355592,40.469241,0.00 -7.355371,40.469582,0.00 -7.355364,40.469591,0.00 -7.355132,40.469786,0.00 -7.355126,40.469786,0.00 -7.355113,40.469795,0.00 -7.354855,40.469946,0.00 -7.354607,40.470209,0.00 -7.354590,40.470224,0.00 -7.354373,40.470515,0.00 -7.354232,40.470721,0.00 -7.353883,40.471271,0.00 -7.353735,40.471578,0.00 -7.353588,40.471754,0.00 -7.353233,40.472042,0.00 -7.353010,40.472281,0.00 -7.352826,40.472316,0.00 -7.352823,40.472314,0.00 -7.352640,40.472345,0.00 -7.352626,40.472349,0.00 -7.352528,40.472468,0.00 -7.352529,40.472711,0.00 -7.352540,40.472808,0.00 -7.352422,40.472967,0.00 -7.352311,40.473083,0.00 -7.352137,40.473362,0.00 -7.352115,40.473448,0.00 -7.352032,40.473652,0.00 -7.351827,40.473863,0.00 -7.351822,40.473869,0.00 -7.351791,40.473893,0.00 -7.351648,40.474106,0.00 -7.351631,40.474138,0.00 -7.351621,40.474162,0.00 -7.351499,40.474340,0.00 -7.351494,40.474346,0.00 -7.351266,40.474589,0.00 -7.351113,40.474748,0.00 -7.350771,40.475285,0.00 -7.350495,40.475626,0.00 -7.350323,40.475811,0.00 -7.350317,40.475812,0.00 -7.350299,40.475827,0.00 -7.350084,40.476043,0.00 -7.349973,40.476190,0.00 -7.349967,40.476195,0.00 -7.349825,40.476390,0.00 -7.349730,40.476505,0.00 -7.349593,40.476706,0.00 -7.349516,40.476938,0.00 -7.349397,40.477263,0.00 -7.349240,40.477395,0.00 -7.349228,40.477402,0.00 -7.348938,40.477628,0.00 -7.348822,40.477755,0.00 -7.348595,40.478072,0.00 -7.348588,40.478080,0.00 -7.348470,40.478273,0.00 -7.348321,40.478571,0.00 -7.348249,40.478754,0.00 -7.348111,40.479020,0.00 -7.347926,40.479177,0.00 -7.347657,40.479270,0.00 -7.347352,40.479607,0.00 -7.347238,40.479795,0.00 -7.347078,40.480069,0.00 -7.347007,40.480214,0.00 -7.346895,40.480382,0.00 -7.346882,40.480391,0.00 -7.346748,40.480500,0.00 -7.346743,40.480506,0.00 -7.346623,40.480670,0.00 -7.346390,40.480966,0.00 -7.346221,40.481077,0.00 -7.346203,40.481098,0.00 -7.346075,40.481270,0.00 -7.346060,40.481288,0.00 -7.345936,40.481565,0.00 -7.345758,40.482043,0.00 -7.345446,40.482482,0.00 -7.345236,40.482781,0.00 -7.345218,40.482789,0.00 -7.344902,40.482996,0.00 -7.344883,40.483011,0.00 -7.344876,40.483020,0.00 -7.344647,40.483274,0.00 -7.344410,40.483589,0.00 -7.344279,40.483869,0.00 -7.344096,40.484161,0.00 -7.343820,40.484435,0.00 -7.343585,40.484646,0.00 -7.343182,40.484996,0.00 -7.342960,40.485242,0.00 -7.342701,40.485485,0.00 -7.342634,40.485677,0.00 -7.342691,40.485827,0.00 -7.342564,40.486153,0.00 -7.342535,40.486357,0.00 -7.342427,40.486857,0.00 -7.342415,40.486893,0.00 -7.342414,40.486901,0.00 -7.342262,40.487173,0.00 -7.341954,40.487785,0.00 -7.341609,40.488259,0.00 -7.341555,40.488449,0.00 -7.341442,40.488647,0.00 -7.341092,40.489321,0.00 -7.340783,40.490043,0.00 -7.340426,40.490558,0.00 -7.340375,40.490923,0.00 -7.340337,40.491302,0.00 -7.340280,40.491630,0.00 -7.339928,40.492036,0.00 -7.339658,40.492219,0.00 -7.339131,40.492395,0.00 -7.339019,40.492550,0.00 -7.338871,40.492785,0.00 -7.338663,40.492953,0.00 -7.338403,40.493349,0.00 -7.338194,40.493592,0.00 -7.337972,40.494005,0.00 -7.337688,40.494451,0.00 -7.337314,40.494869,0.00 -7.337093,40.495138,0.00 -7.336844,40.495558,0.00 -7.336608,40.495935,0.00 -7.336519,40.496306,0.00 -7.336554,40.496512,0.00 -7.336386,40.496944,0.00 -7.336083,40.497233,0.00 -7.336057,40.497470,0.00 -7.335859,40.497761,0.00 -7.335618,40.498195,0.00 -7.335481,40.498355,0.00 -7.335228,40.498745,0.00 -7.335100,40.499162,0.00 -7.334956,40.499545,0.00 -7.334756,40.499895,0.00 -7.334534,40.500201,0.00 -7.334311,40.500486,0.00 -7.334167,40.500858,0.00 -7.333982,40.501454,0.00 -7.333990,40.501804,0.00 -7.334022,40.502422,0.00 -7.333880,40.502814,0.00 -7.333583,40.503143,0.00 -7.333211,40.503448,0.00 -7.333014,40.503789,0.00 -7.333221,40.503889,0.00 -7.333313,40.504016,0.00 -7.333551,40.504252,0.00 -7.333635,40.504428,0.00 -7.333791,40.504589,0.00 -7.333822,40.504705,0.00 -7.333791,40.504783,0.00 -7.333902,40.504858,0.00 -7.334019,40.504990,0.00 -7.334126,40.505140,0.00 -7.334127,40.505368,0.00 -7.334085,40.505593,0.00 -7.334049,40.505823,0.00 -7.333887,40.506185,0.00 -7.333538,40.506651,0.00 -7.333162,40.507119,0.00 -7.332991,40.507467,0.00 -7.332881,40.507859,0.00 -7.332664,40.508070,0.00 -7.332518,40.508182,0.00 -7.332444,40.508379,0.00 -7.332361,40.508502,0.00 -7.332267,40.508598,0.00 -7.331995,40.508906,0.00 -7.331660,40.509352,0.00 -7.331326,40.509824,0.00 -7.331115,40.510194,0.00 -7.331158,40.510392,0.00 -7.331290,40.510581,0.00 -7.331225,40.510720,0.00 -7.330709,40.511047,0.00 -7.330362,40.511240,0.00 -7.330038,40.511385,0.00 -7.329625,40.511527,0.00 -7.329235,40.511563,0.00 -7.328922,40.511557,0.00 -7.328535,40.511511,0.00 -7.328217,40.511510,0.00 -7.328001,40.511442,0.00 -7.327886,40.511436,0.00 -7.327896,40.511517,0.00 -7.328041,40.511687,0.00 -7.328217,40.511896,0.00 -7.328367,40.512066,0.00 -7.328206,40.512315,0.00 -7.328056,40.512617,0.00 -7.327762,40.513006,0.00 -7.327433,40.513030,0.00 -7.327075,40.513155,0.00 -7.326587,40.513363,0.00 -7.326303,40.513504,0.00 -7.326174,40.513688,0.00 -7.325927,40.513808,0.00 -7.325711,40.513763,0.00 -7.325604,40.513727,0.00 -7.325580,40.513726,0.00 -7.325373,40.513748,0.00 -7.325109,40.513746,0.00 -7.324938,40.513810,0.00 -7.324762,40.513888,0.00 -7.324471,40.513997,0.00 -7.324087,40.514093,0.00 -7.323815,40.514151,0.00 -7.323549,40.514273,0.00 -7.323324,40.514552,0.00 -7.323163,40.514782,0.00 -7.322835,40.514840,0.00 -7.322652,40.515017,0.00 -7.322505,40.515243,0.00 -7.322357,40.515513,0.00 -7.322108,40.515579,0.00 -7.321947,40.515592,0.00 -7.321750,40.515686,0.00 -7.321469,40.515857,0.00 -7.321118,40.515992,0.00 -7.320847,40.516029,0.00 -7.320574,40.516057,0.00 -7.320225,40.516346,0.00 -7.320011,40.516626,0.00 -7.319804,40.516903,0.00 -7.319539,40.517172,0.00 -7.319259,40.517418,0.00 -7.319001,40.517645,0.00 -7.318625,40.517987,0.00 -7.318269,40.518366,0.00 -7.317915,40.518775,0.00 -7.317655,40.519054,0.00 -7.317692,40.519186,0.00 -7.317773,40.519464,0.00 -7.317885,40.519757,0.00 -7.317967,40.520020,0.00 -7.317692,40.520469,0.00 -7.317481,40.520808,0.00 -7.317289,40.521115,0.00 -7.316835,40.521402,0.00 -7.316551,40.521591,0.00 -7.316169,40.521927,0.00 -7.316041,40.522059,0.00 -7.316161,40.522194,0.00 -7.316335,40.522341,0.00 -7.316182,40.522437,0.00 -7.315933,40.522631,0.00 -7.315730,40.522802,0.00 -7.315597,40.522934,0.00 -7.315298,40.523229,0.00 -7.315084,40.523483,0.00 -7.314854,40.523774,0.00 -7.314533,40.524067,0.00 -7.314267,40.524278,0.00 -7.313949,40.524539,0.00 -7.313750,40.524690,0.00 -7.313763,40.524680,0.00 -7.313399,40.524992,0.00 -7.312940,40.525306,0.00 -7.312569,40.525676,0.00 -7.312304,40.525929,0.00 -7.311956,40.526386,0.00 -7.311661,40.526811,0.00 -7.311574,40.527172,0.00 -7.311408,40.527509,0.00 -7.311295,40.527704,0.00 -7.311186,40.527797,0.00 -7.310844,40.527846,0.00 -7.310424,40.527982,0.00 -7.309998,40.528252,0.00 -7.309598,40.528575,0.00 -7.309507,40.528952,0.00 -7.309365,40.529412,0.00 -7.309043,40.529689,0.00 -7.308996,40.529891,0.00 -7.308878,40.530256,0.00 -7.308220,40.530848,0.00 -7.307592,40.531297,0.00 -7.307086,40.531654,0.00 -7.306524,40.531952,0.00 -7.306025,40.532153,0.00 -7.304977,40.532397,0.00 -7.303948,40.532491,0.00 -7.303303,40.532603,0.00 -7.302549,40.532796,0.00 -7.301784,40.533235,0.00 -7.301335,40.533746,0.00 -7.300888,40.534095,0.00 -7.300629,40.534400,0.00 -7.300380,40.534665,0.00 -7.299809,40.535004,0.00 -7.299158,40.535126,0.00 -7.298651,40.535236,0.00 -7.298131,40.535375,0.00 -7.297921,40.535431,0.00 -7.297661,40.535570,0.00 -7.297523,40.535737,0.00 -7.297425,40.535952,0.00 -7.297334,40.536271,0.00 -7.297170,40.536642,0.00 -7.297094,40.536848,0.00 -7.296864,40.537070,0.00 -7.296584,40.537132,0.00 -7.296179,40.537152,0.00 -7.296057,40.537336,0.00 -7.295932,40.537567,0.00 -7.295784,40.537872,0.00 -7.295770,40.538073,0.00 -7.295548,40.538136,0.00 -7.295370,40.538199,0.00 -7.295124,40.538229,0.00 -7.294832,40.538252,0.00 -7.294606,40.538295,0.00 -7.294565,40.538366,0.00 -7.294443,40.538401,0.00 -7.294273,40.538472,0.00 -7.294276,40.538586,0.00 -7.294352,40.538723,0.00 -7.294503,40.538818,0.00 -7.294747,40.538866,0.00 -7.295049,40.539034,0.00 -7.295065,40.539038,0.00 -7.295493,40.539338,0.00 -7.295775,40.539687,0.00 -7.295995,40.539832,0.00 -7.296152,40.540021,0.00 -7.296182,40.540190,0.00 -7.296420,40.540350,0.00 -7.296477,40.540361,0.00 -7.296531,40.540405,0.00 -7.296378,40.540523,0.00                             
                        </coordinates>
                    </LineString>
                </Placemark>
                                        
        </Folder>
                
        <LookAt>
            <longitude>-7.3688695</longitude>            
            <latitude>40.4940775</latitude>             
            <altitude>0</altitude>               
            <heading>0</heading>               
            <tilt>45</tilt>
            <range>7598</range>                    
            <altitudeMode>clampToGround</altitudeMode> 
        </LookAt>
    </Document>
</kml>